{"signature":{"source":"NASA/JPL Small-Body Database (SBDB) API","version":"1.3"},"orbit":{"two_body":null,"rms":".5507","producer":"Davide Farnocchia","moid":".0732373","condition_code":"0","first_obs":"2008-05-05","moid_jup":".276987","comment":null,"elements":[{"units":null,"name":"e","title":"eccentricity","value":".6935978573940613","sigma":"1.9437E-8","label":"e"},{"value":"3.475652487146584","title":"semi-major axis","name":"a","units":"au","label":"a","sigma":"2.114E-7"},{"units":"au","name":"q","title":"perihelion distance","value":"1.064947369015373","sigma":"3.8E-8","label":"q"},{"label":"i","sigma":"1.9866E-6","value":"13.59946797122405","name":"i","title":"inclination; angle with respect to x-y ecliptic plane","units":"deg"},{"label":"node","sigma":"9.2179E-6","title":"longitude of the ascending node","name":"om","value":"219.7421743331336","units":"deg"},{"sigma":"9.5589E-6","label":"peri","units":"deg","title":"argument of perihelion","name":"w","value":"181.3218438419628"},{"sigma":"2.2794E-5","label":"M","units":"deg","title":"mean anomaly","name":"ma","value":"251.7821727285582"},{"label":"tp","sigma":".00021474","value":"2457863.957983132166","name":"tp","title":"time of perihelion passage","units":"TDB"},{"value":"2366.753060797867","name":"per","title":"sidereal orbital period","units":"d","label":"period","sigma":".00021593"},{"sigma":"1.3877E-8","label":"n","units":"deg/d","value":".1521071234523465","title":"mean motion","name":"n"},{"label":"Q","sigma":"3.5802E-7","value":"5.886357605277794","name":"ad","title":"aphelion distance","units":"au"}],"equinox":"J2000","orbit_id":"K233/5","not_valid_before":null,"not_valid_after":null,"data_arc":"6202","model_pars":[{"sigma":"9.413E-12","kind":"EST","desc":"non-gravitational radial acceleration parameter","n":1,"units":"au/d^2","value":"1.384525626808849E-9","name":"A1","title":"non-grav. radial accel."},{"sigma":"2.06E-12","kind":"EST","desc":"non-gravitational transverse acceleration parameter","n":2,"units":"au/d^2","value":"1.464430870492432E-10","title":"non-grav. transverse accel.","name":"A2"},{"sigma":"8.672E-12","n":3,"desc":"non-gravitational normal acceleration parameter","kind":"EST","units":"au/d^2","name":"A3","title":"non-grav. normal accel.","value":"1.812240220768521E-10"},{"sigma":".2216","desc":"non-gravitational perihelion-maximum offset","n":4,"kind":"EST","units":"d","name":"DT","title":"non-grav. perihelion offset","value":"12.23373994658573"}],"t_jup":"2.642","last_obs":"2025-04-28","n_obs_used":8768,"pe_used":"DE441","soln_date":"2025-05-01 10:45:38","epoch":"2457152.5","sb_used":"SB441-N16","n_del_obs_used":null,"source":"JPL","n_dop_obs_used":null,"cov_epoch":"2457152.5"},"object":{"kind":"cn","orbit_id":"K233/5","fullname":"103P/Hartley 2","pha":false,"spkid":"1000041","neo":true,"des":"103P","orbit_class":{"code":"JFc","name":"Jupiter-family Comet"},"prefix":"P"}}
